STARLINK-2588_new
1 18398C 21038AX  21326.15328813  .00005540  00000-0  37129-3 0  3264
2 18398  53.0529 183.0472 0001790  78.5806 147.9461 15.06384189    12
STARLINK-2588_old
1 28398C 21038AX  21325.08766450  .00020421  00000-0  13689-2 0  3256
2 28398  53.0541 187.8315 0001857  75.4239 129.0496 15.06361203    15
